IRIDIUM 112             
1 41925U 17003J   25217.08215570  .00000063  00000+0  15500-4 0  9990
2 41925  86.3952 220.3319 0002367  88.0138 272.1329 14.34217944447990
IRIDIUM 111             
1 41926U 17003K   25216.86016324 -.00000015  00000+0 -12314-4 0  9991
2 41926  86.3959 220.4883 0002061  92.7645 267.3787 14.34217266447914
IRIDIUM 113             
1 42803U 17039A   25216.90989796 -.00000026  00000+0 -16518-4 0  9994
2 42803  86.3943  94.3958 0002076  78.4012 281.7417 14.34217360425852
IRIDIUM 123             
1 42804U 17039B   25216.81183855  .00000064  00000+0  15653-4 0  9996
2 42804  86.3994 125.9159 0001845  86.8781 273.2626 14.34217907424609
IRIDIUM 120             
1 42805U 17039C   25216.90355540  .00000023  00000+0  11638-5 0  9994
2 42805  86.3931  94.2218 0002009  94.3709 265.7716 14.34217556425845
IRIDIUM 115             
1 42806U 17039D   25216.90061689  .00000295  00000+0  81730-4 0  9993
2 42806  86.4471  94.3090 0001488  95.8172 264.3198 14.43280408428641
IRIDIUM 118             
1 42807U 17039E   25217.26216421  .00000075  00000+0  19838-4 0  9996
2 42807  86.3994 125.7272 0002260  79.0013 281.1437 14.34217602424677
IRIDIUM 117             
1 42808U 17039F   25216.86257990  .00000001  00000+0 -65676-5 0  9990
2 42808  86.3992 125.8542 0001872  80.6993 279.4415 14.34217487424633
